start=new Date('2023-06-13T00:00:00.000Z').valueOf();
sats=[{"RA_OF_ASC_NODE":"79.9628","TLE_LINE2":"2 55438  69.9990  79.9628 0002950 267.5802  92.5056 15.69903831 21786","MEAN_ANOMALY":"92.5056","ARG_OF_PERICENTER":"267.5802","MEAN_MOTION_DOT":"-0.00003205","CENTER_NAME":"EARTH","PERIAPSIS":"357.187","NORAD_CAT_ID":"55438","APOAPSIS":"361.162","DECAY_DATE":null,"COUNTRY_CODE":"US","BSTAR":"-0.00002491900000","EPHEMERIS_TYPE":"0","LAUNCH_DATE":"2023-01-31","RCS_SIZE":"LARGE","OBJECT_NAME":"STARLINK-5074","REV_AT_EPOCH":"2178","SEMIMAJOR_AXIS":"6737.309","GP_ID":"233803755","ELEMENT_SET_NO":"999","OBJECT_TYPE":"PAYLOAD","INCLINATION":"69.9990","MEAN_MOTION_DDOT":"0.0000000000000","OBJECT_ID":"2023-014AZ","MEAN_ELEMENT_THEORY":"SGP4","EPOCH":"2023-06-12T04:35:40.282080","REF_FRAME":"TEME","TIME_SYSTEM":"UTC","MEAN_MOTION":"15.69903831","ECCENTRICITY":"0.00029500","FILE":"3931605","CLASSIFICATION_TYPE":"U","SITE":"AFWTR","TLE_LINE1":"1 55438U 23014AZ  23163.19143845 -.00003205  00000-0 -24919-4 0  9996","PERIOD":"91.725"},{"ARG_OF_PERICENTER":"268.9596","MEAN_ANOMALY":"91.1218","RA_OF_ASC_NODE":"109.4706","TLE_LINE2":"2 55439  69.9992 109.4706 0003013 268.9596  91.1218 14.98332120 21065","PERIAPSIS":"569.957","CENTER_NAME":"EARTH","MEAN_MOTION_DOT":"0.00000747","APOAPSIS":"574.145","DECAY_DATE":null,"COUNTRY_CODE":"US","NORAD_CAT_ID":"55439","SEMIMAJOR_AXIS":"6950.186","OBJECT_NAME":"STARLINK-5634","REV_AT_EPOCH":"2106","LAUNCH_DATE":"2023-01-31","EPHEMERIS_TYPE":"0","RCS_SIZE":"LARGE","BSTAR":"0.00007037600000","ELEMENT_SET_NO":"999","GP_ID":"233768456","MEAN_ELEMENT_THEORY":"SGP4","EPOCH":"2023-06-12T06:26:29.474880","INCLINATION":"69.9992","MEAN_MOTION_DDOT":"0.0000000000000","OBJECT_ID":"2023-014BA","OBJECT_TYPE":"PAYLOAD","MEAN_MOTION":"14.98332120","TIME_SYSTEM":"UTC","REF_FRAME":"TEME","TLE_LINE1":"1 55439U 23014BA  23163.26839670  .00000747  00000-0  70376-4 0  9997","PERIOD":"96.107","SITE":"AFWTR","ECCENTRICITY":"0.00030130","FILE":"3931287","CLASSIFICATION_TYPE":"U"},{"EPOCH":"2023-06-12T21:31:28.637472","MEAN_ELEMENT_THEORY":"SGP4","OBJECT_ID":"2023-015A","MEAN_MOTION_DDOT":"0.0000000000000","INCLINATION":"43.0046","OBJECT_TYPE":"PAYLOAD","ELEMENT_SET_NO":"999","GP_ID":"233804008","PERIOD":"95.838","TLE_LINE1":"1 55449U 23015A   23163.89685923 -.00000538  00000-0 -24784-4 0  9990","SITE":"AFETR","CLASSIFICATION_TYPE":"U","ECCENTRICITY":"0.00014930","FILE":"3931605","MEAN_MOTION":"15.02539093","TIME_SYSTEM":"UTC","REF_FRAME":"TEME","PERIAPSIS":"558.036","CENTER_NAME":"EARTH","MEAN_MOTION_DOT":"-0.00000538","ARG_OF_PERICENTER":"264.3204","MEAN_ANOMALY":"95.7468","TLE_LINE2":"2 55449  43.0046   4.4596 0001493 264.3204  95.7468 15.02539093 21146","RA_OF_ASC_NODE":"4.4596","SEMIMAJOR_AXIS":"6937.207","REV_AT_EPOCH":"2114","OBJECT_NAME":"STARLINK-5699","RCS_SIZE":"LARGE","EPHEMERIS_TYPE":"0","LAUNCH_DATE":"2023-02-02","BSTAR":"-0.00002478400000","COUNTRY_CODE":"US","APOAPSIS":"560.108","DECAY_DATE":null,"NORAD_CAT_ID":"55449"},{"PERIOD":"95.838","TLE_LINE1":"1 55450U 23015B   23163.90019218 -.00000530  00000-0 -24180-4 0  9994","FILE":"3931605","ECCENTRICITY":"0.00016000","CLASSIFICATION_TYPE":"U","SITE":"AFETR","MEAN_MOTION":"15.02535733","REF_FRAME":"TEME","TIME_SYSTEM":"UTC","INCLINATION":"43.0041","MEAN_MOTION_DDOT":"0.0000000000000","OBJECT_ID":"2023-015B","MEAN_ELEMENT_THEORY":"SGP4","EPOCH":"2023-06-12T21:36:16.604352","OBJECT_TYPE":"PAYLOAD","ELEMENT_SET_NO":"999","GP_ID":"233804253","REV_AT_EPOCH":"2114","OBJECT_NAME":"STARLINK-5686","SEMIMAJOR_AXIS":"6937.217","BSTAR":"-0.00002418000000","LAUNCH_DATE":"2023-02-02","EPHEMERIS_TYPE":"0","RCS_SIZE":"LARGE","NORAD_CAT_ID":"55450","APOAPSIS":"560.192","DECAY_DATE":null,"COUNTRY_CODE":"US","CENTER_NAME":"EARTH","PERIAPSIS":"557.972","MEAN_MOTION_DOT":"-0.00000530","ARG_OF_PERICENTER":"269.3048","RA_OF_ASC_NODE":"4.4856","TLE_LINE2":"2 55450  43.0041   4.4856 0001600 269.3048  90.7611 15.02535733 21145","MEAN_ANOMALY":"90.7611"},{"APOAPSIS":"559.983","DECAY_DATE":null,"COUNTRY_CODE":"US","NORAD_CAT_ID":"55451","EPHEMERIS_TYPE":"0","LAUNCH_DATE":"2023-02-02","RCS_SIZE":"LARGE","BSTAR":"0.00004440600000","SEMIMAJOR_AXIS":"6937.205","REV_AT_EPOCH":"2020","OBJECT_NAME":"STARLINK-5656","MEAN_ANOMALY":"98.3372","RA_OF_ASC_NODE":"4.4341","TLE_LINE2":"2 55451  43.0040   4.4341 0001316 261.7321  98.3372 15.02539860 20207","ARG_OF_PERICENTER":"261.7321","MEAN_MOTION_DOT":"0.00000396","PERIAPSIS":"558.157","CENTER_NAME":"EARTH","TIME_SYSTEM":"UTC","REF_FRAME":"TEME","MEAN_MOTION":"15.02539860","SITE":"AFETR","ECCENTRICITY":"0.00013160","FILE":"3931605","CLASSIFICATION_TYPE":"U","PERIOD":"95.838","TLE_LINE1":"1 55451U 23015C   23163.89353164  .00000396  00000-0  44406-4 0  9995","GP_ID":"233803506","ELEMENT_SET_NO":"999","OBJECT_TYPE":"PAYLOAD","MEAN_ELEMENT_THEORY":"SGP4","EPOCH":"2023-06-12T21:26:41.133696","INCLINATION":"43.0040","MEAN_MOTION_DDOT":"0.0000000000000","OBJECT_ID":"2023-015C"},{"ARG_OF_PERICENTER":"264.6519","MEAN_ANOMALY":"95.4170","TLE_LINE2":"2 55452  43.0052   4.3929 0001346 264.6519  95.4170 15.02538788 20208","RA_OF_ASC_NODE":"4.3929","PERIAPSIS":"558.139","CENTER_NAME":"EARTH","MEAN_MOTION_DOT":"-0.00000111","COUNTRY_CODE":"US","APOAPSIS":"560.007","DECAY_DATE":null,"NORAD_CAT_ID":"55452","SEMIMAJOR_AXIS":"6937.208","OBJECT_NAME":"STARLINK-5683","REV_AT_EPOCH":"2020","RCS_SIZE":"LARGE","EPHEMERIS_TYPE":"0","LAUNCH_DATE":"2023-02-02","BSTAR":"0.00000686190000","ELEMENT_SET_NO":"999","GP_ID":"233803756","EPOCH":"2023-06-12T21:18:41.484960","MEAN_ELEMENT_THEORY":"SGP4","OBJECT_ID":"2023-015D","MEAN_MOTION_DDOT":"0.0000000000000","INCLINATION":"43.0052","OBJECT_TYPE":"PAYLOAD","MEAN_MOTION":"15.02538788","TIME_SYSTEM":"UTC","REF_FRAME":"TEME","TLE_LINE1":"1 55452U 23015D   23163.88798015 -.00000111  00000-0  68619-5 0  9992","PERIOD":"95.838","SITE":"AFETR","CLASSIFICATION_TYPE":"U","FILE":"3931605","ECCENTRICITY":"0.00013460"},{"OBJECT_TYPE":"PAYLOAD","INCLINATION":"43.0046","MEAN_MOTION_DDOT":"0.0000000000000","OBJECT_ID":"2023-015E","MEAN_ELEMENT_THEORY":"SGP4","EPOCH":"2023-06-12T21:15:29.719296","GP_ID":"233804508","ELEMENT_SET_NO":"999","FILE":"3931605","ECCENTRICITY":"0.00014650","CLASSIFICATION_TYPE":"U","SITE":"AFETR","TLE_LINE1":"1 55453U 23015E   23163.88576064  .00000042  00000-0  18193-4 0  9994","PERIOD":"95.838","REF_FRAME":"TEME","TIME_SYSTEM":"UTC","MEAN_MOTION":"15.02537127","MEAN_MOTION_DOT":"0.00000042","CENTER_NAME":"EARTH","PERIAPSIS":"558.062","RA_OF_ASC_NODE":"4.3743","TLE_LINE2":"2 55453  43.0046   4.3743 0001465 271.7727  88.2947 15.02537127 20206","MEAN_ANOMALY":"88.2947","ARG_OF_PERICENTER":"271.7727","BSTAR":"0.00001819300000","EPHEMERIS_TYPE":"0","LAUNCH_DATE":"2023-02-02","RCS_SIZE":"LARGE","REV_AT_EPOCH":"2020","OBJECT_NAME":"STARLINK-5684","SEMIMAJOR_AXIS":"6937.213","NORAD_CAT_ID":"55453","APOAPSIS":"560.094","DECAY_DATE":null,"COUNTRY_CODE":"US"},{"CLASSIFICATION_TYPE":"U","FILE":"3931605","ECCENTRICITY":"0.00014030","SITE":"AFETR","TLE_LINE1":"1 55454U 23015F   23163.87909978  .00000299  00000-0  37209-4 0  9991","PERIOD":"95.838","REF_FRAME":"TEME","TIME_SYSTEM":"UTC","MEAN_MOTION":"15.02537738","OBJECT_TYPE":"PAYLOAD","OBJECT_ID":"2023-015F","MEAN_MOTION_DDOT":"0.0000000000000","INCLINATION":"43.0035","EPOCH":"2023-06-12T21:05:54.220992","MEAN_ELEMENT_THEORY":"SGP4","GP_ID":"233804753","ELEMENT_SET_NO":"999","BSTAR":"0.00003720900000","RCS_SIZE":"LARGE","EPHEMERIS_TYPE":"0","LAUNCH_DATE":"2023-02-02","OBJECT_NAME":"STARLINK-5636","REV_AT_EPOCH":"2020","SEMIMAJOR_AXIS":"6937.211","NORAD_CAT_ID":"55454","COUNTRY_CODE":"US","APOAPSIS":"560.049","DECAY_DATE":null,"MEAN_MOTION_DOT":"0.00000299","CENTER_NAME":"EARTH","PERIAPSIS":"558.103","TLE_LINE2":"2 55454  43.0035   4.3216 0001403 278.6103  81.4580 15.02537738 20202","RA_OF_ASC_NODE":"4.3216","MEAN_ANOMALY":"81.4580","ARG_OF_PERICENTER":"278.6103"},{"MEAN_ELEMENT_THEORY":"SGP4","EPOCH":"2023-06-12T21:23:29.222016","INCLINATION":"43.0054","MEAN_MOTION_DDOT":"0.0000000000000","OBJECT_ID":"2023-015G","OBJECT_TYPE":"PAYLOAD","ELEMENT_SET_NO":"999","GP_ID":"233803007","TLE_LINE1":"1 55455U 23015G   23163.89131044  .00000193  00000-0  29341-4 0  9996","PERIOD":"95.838","SITE":"AFETR","ECCENTRICITY":"0.00013760","FILE":"3931605","CLASSIFICATION_TYPE":"U","MEAN_MOTION":"15.02536502","TIME_SYSTEM":"UTC","REF_FRAME":"TEME","PERIAPSIS":"558.125","CENTER_NAME":"EARTH","MEAN_MOTION_DOT":"0.00000193","ARG_OF_PERICENTER":"271.6546","MEAN_ANOMALY":"88.4139","RA_OF_ASC_NODE":"4.4173","TLE_LINE2":"2 55455  43.0054   4.4173 0001376 271.6546  88.4139 15.02536502 20205","SEMIMAJOR_AXIS":"6937.215","REV_AT_EPOCH":"2020","OBJECT_NAME":"STARLINK-5680","EPHEMERIS_TYPE":"0","LAUNCH_DATE":"2023-02-02","RCS_SIZE":"LARGE","BSTAR":"0.00002934100000","APOAPSIS":"560.035","DECAY_DATE":null,"COUNTRY_CODE":"US","NORAD_CAT_ID":"55455"},{"BSTAR":"-0.00005545500000","EPHEMERIS_TYPE":"0","LAUNCH_DATE":"2023-02-02","RCS_SIZE":"LARGE","REV_AT_EPOCH":"2020","OBJECT_NAME":"STARLINK-5058","SEMIMAJOR_AXIS":"6937.191","NORAD_CAT_ID":"55456","DECAY_DATE":null,"APOAPSIS":"559.919","COUNTRY_CODE":"US","MEAN_MOTION_DOT":"-0.00000953","CENTER_NAME":"EARTH","PERIAPSIS":"558.193","RA_OF_ASC_NODE":"4.3349","TLE_LINE2":"2 55456  43.0056   4.3349 0001244 274.7614  85.3086 15.02544370 20205","MEAN_ANOMALY":"85.3086","ARG_OF_PERICENTER":"274.7614","ECCENTRICITY":"0.00012440","FILE":"3931605","CLASSIFICATION_TYPE":"U","SITE":"AFETR","PERIOD":"95.837","TLE_LINE1":"1 55456U 23015H   23163.88020807 -.00000953  00000-0 -55455-4 0  9991","REF_FRAME":"TEME","TIME_SYSTEM":"UTC","MEAN_MOTION":"15.02544370","OBJECT_TYPE":"PAYLOAD","INCLINATION":"43.0056","MEAN_MOTION_DDOT":"0.0000000000000","OBJECT_ID":"2023-015H","MEAN_ELEMENT_THEORY":"SGP4","EPOCH":"2023-06-12T21:07:29.977248","GP_ID":"233803257","ELEMENT_SET_NO":"999"}];
